start=new Date('2023-05-29T00:00:00.000Z').valueOf();
sats=[{"TLE_LINE1":"1 50181U 21125AB  23148.68034456  .00000841  00000-0  70926-4 0  9991","APOAPSIS":"540.541","LAUNCH_DATE":"2021-12-18","PERIAPSIS":"538.937","MEAN_MOTION_DOT":"0.00000841","REV_AT_EPOCH":"8322","GP_ID":"232706026","MEAN_ELEMENT_THEORY":"SGP4","BSTAR":"0.00007092600000","MEAN_MOTION_DDOT":"0.0000000000000","PERIOD":"95.437","CLASSIFICATION_TYPE":"U","RCS_SIZE":"LARGE","COUNTRY_CODE":"US","CENTER_NAME":"EARTH","SEMIMAJOR_AXIS":"6917.874","OBJECT_NAME":"STARLINK-3285","REF_FRAME":"TEME","NORAD_CAT_ID":"50181","RA_OF_ASC_NODE":"130.1725","OBJECT_TYPE":"PAYLOAD","INCLINATION":"53.2160","EPOCH":"2023-05-28T16:19:41.769984","DECAY_DATE":null,"FILE":"3919546","SITE":"AFWTR","TIME_SYSTEM":"UTC","ECCENTRICITY":"0.00011590","EPHEMERIS_TYPE":"0","OBJECT_ID":"2021-125AB","MEAN_MOTION":"15.08842021","TLE_LINE2":"2 50181  53.2160 130.1725 0001159  87.2227 272.8898 15.08842021 83227","ARG_OF_PERICENTER":"87.2227","ELEMENT_SET_NO":"999","MEAN_ANOMALY":"272.8898"},{"PERIOD":"95.437","MEAN_MOTION_DDOT":"0.0000000000000","RCS_SIZE":"LARGE","CLASSIFICATION_TYPE":"U","REV_AT_EPOCH":"8325","GP_ID":"232706277","MEAN_ELEMENT_THEORY":"SGP4","BSTAR":"0.00003358400000","MEAN_MOTION_DOT":"0.00000247","TLE_LINE1":"1 50182U 21125AC  23148.65825053  .00000247  00000-0  33584-4 0  9999","APOAPSIS":"540.618","LAUNCH_DATE":"2021-12-18","PERIAPSIS":"538.838","ARG_OF_PERICENTER":"86.4886","MEAN_ANOMALY":"273.6253","ELEMENT_SET_NO":"999","TIME_SYSTEM":"UTC","ECCENTRICITY":"0.00012860","TLE_LINE2":"2 50182  53.2162 130.1196 0001286  86.4886 273.6253 15.08845682 83258","MEAN_MOTION":"15.08845682","OBJECT_ID":"2021-125AC","EPHEMERIS_TYPE":"0","EPOCH":"2023-05-28T15:47:52.845792","INCLINATION":"53.2162","FILE":"3919546","DECAY_DATE":null,"SITE":"AFWTR","OBJECT_NAME":"STARLINK-3277","SEMIMAJOR_AXIS":"6917.863","CENTER_NAME":"EARTH","COUNTRY_CODE":"US","REF_FRAME":"TEME","RA_OF_ASC_NODE":"130.1196","OBJECT_TYPE":"PAYLOAD","NORAD_CAT_ID":"50182"},{"OBJECT_TYPE":"PAYLOAD","RA_OF_ASC_NODE":"130.1821","NORAD_CAT_ID":"50183","REF_FRAME":"TEME","OBJECT_NAME":"STARLINK-3281","SEMIMAJOR_AXIS":"6917.879","CENTER_NAME":"EARTH","COUNTRY_CODE":"US","SITE":"AFWTR","DECAY_DATE":null,"FILE":"3919546","EPOCH":"2023-05-28T16:13:01.210080","INCLINATION":"53.2163","MEAN_MOTION":"15.08840406","TLE_LINE2":"2 50183  53.2163 130.1821 0001200  80.7120 279.4007 15.08840406 83260","OBJECT_ID":"2021-125AD","EPHEMERIS_TYPE":"0","ECCENTRICITY":"0.00012000","TIME_SYSTEM":"UTC","MEAN_ANOMALY":"279.4007","ELEMENT_SET_NO":"999","ARG_OF_PERICENTER":"80.7120","LAUNCH_DATE":"2021-12-18","PERIAPSIS":"538.914","APOAPSIS":"540.574","TLE_LINE1":"1 50183U 21125AD  23148.67570845  .00000492  00000-0  49015-4 0  9996","MEAN_MOTION_DOT":"0.00000492","BSTAR":"0.00004901500000","MEAN_ELEMENT_THEORY":"SGP4","GP_ID":"232707028","REV_AT_EPOCH":"8326","RCS_SIZE":"LARGE","CLASSIFICATION_TYPE":"U","PERIOD":"95.438","MEAN_MOTION_DDOT":"0.0000000000000"},{"TIME_SYSTEM":"UTC","ECCENTRICITY":"0.00017330","OBJECT_ID":"2021-125AF","EPHEMERIS_TYPE":"0","TLE_LINE2":"2 50185  53.2156 130.1109 0001733  87.3699 272.7492 15.08852806 83225","MEAN_MOTION":"15.08852806","ARG_OF_PERICENTER":"87.3699","ELEMENT_SET_NO":"999","MEAN_ANOMALY":"272.7492","CENTER_NAME":"EARTH","COUNTRY_CODE":"US","OBJECT_NAME":"STARLINK-3279","SEMIMAJOR_AXIS":"6917.841","REF_FRAME":"TEME","NORAD_CAT_ID":"50185","RA_OF_ASC_NODE":"130.1109","OBJECT_TYPE":"PAYLOAD","INCLINATION":"53.2156","EPOCH":"2023-05-28T16:14:23.307360","DECAY_DATE":null,"FILE":"3919546","SITE":"AFWTR","REV_AT_EPOCH":"8322","GP_ID":"232705776","MEAN_ELEMENT_THEORY":"SGP4","BSTAR":"0.00007568600000","MEAN_MOTION_DDOT":"0.0000000000000","PERIOD":"95.437","CLASSIFICATION_TYPE":"U","RCS_SIZE":"LARGE","TLE_LINE1":"1 50185U 21125AF  23148.67665865  .00000917  00000-0  75686-4 0  9990","APOAPSIS":"540.905","LAUNCH_DATE":"2021-12-18","PERIAPSIS":"538.507","MEAN_MOTION_DOT":"0.00000917"},{"PERIAPSIS":"539.052","LAUNCH_DATE":"2021-12-18","APOAPSIS":"540.437","TLE_LINE1":"1 50186U 21125AG  23148.69686475  .00000753  00000-0  65411-4 0  9996","MEAN_MOTION_DOT":"0.00000753","BSTAR":"0.00006541100000","MEAN_ELEMENT_THEORY":"SGP4","REV_AT_EPOCH":"8307","GP_ID":"232705526","CLASSIFICATION_TYPE":"U","RCS_SIZE":"LARGE","MEAN_MOTION_DDOT":"0.0000000000000","PERIOD":"95.438","NORAD_CAT_ID":"50186","OBJECT_TYPE":"PAYLOAD","RA_OF_ASC_NODE":"140.0869","REF_FRAME":"TEME","CENTER_NAME":"EARTH","COUNTRY_CODE":"US","SEMIMAJOR_AXIS":"6917.879","OBJECT_NAME":"STARLINK-3274","SITE":"AFWTR","FILE":"3919546","DECAY_DATE":null,"EPOCH":"2023-05-28T16:43:29.114400","INCLINATION":"53.2162","OBJECT_ID":"2021-125AG","EPHEMERIS_TYPE":"0","TLE_LINE2":"2 50186  53.2162 140.0869 0001001  85.3691 274.7415 15.08840307 83077","MEAN_MOTION":"15.08840307","ECCENTRICITY":"0.00010010","TIME_SYSTEM":"UTC","ELEMENT_SET_NO":"999","MEAN_ANOMALY":"274.7415","ARG_OF_PERICENTER":"85.3691"},{"OBJECT_NAME":"STARLINK-3272","SEMIMAJOR_AXIS":"6917.881","COUNTRY_CODE":"US","CENTER_NAME":"EARTH","RA_OF_ASC_NODE":"119.0742","OBJECT_TYPE":"PAYLOAD","NORAD_CAT_ID":"50187","REF_FRAME":"TEME","EPOCH":"2023-05-28T22:09:23.350752","INCLINATION":"53.2161","SITE":"AFWTR","DECAY_DATE":null,"FILE":"3919546","TIME_SYSTEM":"UTC","MEAN_MOTION":"15.08839864","TLE_LINE2":"2 50187  53.2161 119.0742 0001174  80.0986 280.0139 15.08839864 83375","EPHEMERIS_TYPE":"0","OBJECT_ID":"2021-125AH","ECCENTRICITY":"0.00011740","ARG_OF_PERICENTER":"80.0986","MEAN_ANOMALY":"280.0139","ELEMENT_SET_NO":"999","APOAPSIS":"540.558","TLE_LINE1":"1 50187U 21125AH  23148.92318693  .00000408  00000-0  43729-4 0  9992","LAUNCH_DATE":"2021-12-18","PERIAPSIS":"538.934","MEAN_MOTION_DOT":"0.00000408","MEAN_ELEMENT_THEORY":"SGP4","GP_ID":"232706778","REV_AT_EPOCH":"8337","BSTAR":"0.00004372900000","PERIOD":"95.438","MEAN_MOTION_DDOT":"0.0000000000000","RCS_SIZE":"LARGE","CLASSIFICATION_TYPE":"U"},{"APOAPSIS":"502.578","TLE_LINE1":"1 50188U 21125AJ  23148.89464539 -.00007043  00000-0 -29569-3 0  9999","PERIAPSIS":"500.506","LAUNCH_DATE":"2021-12-18","MEAN_MOTION_DOT":"-0.00007043","MEAN_ELEMENT_THEORY":"SGP4","GP_ID":"232706528","REV_AT_EPOCH":"8353","BSTAR":"-0.00029569000000","PERIOD":"94.648","MEAN_MOTION_DDOT":"0.0000000000000","RCS_SIZE":"LARGE","CLASSIFICATION_TYPE":"U","OBJECT_NAME":"STARLINK-3275","SEMIMAJOR_AXIS":"6879.677","COUNTRY_CODE":"US","CENTER_NAME":"EARTH","OBJECT_TYPE":"PAYLOAD","RA_OF_ASC_NODE":"111.9106","NORAD_CAT_ID":"50188","REF_FRAME":"TEME","INCLINATION":"53.2158","EPOCH":"2023-05-28T21:28:17.361696","SITE":"AFWTR","DECAY_DATE":null,"FILE":"3919546","TIME_SYSTEM":"UTC","TLE_LINE2":"2 50188  53.2158 111.9106 0001506  81.1118 279.0050 15.21425610 83538","MEAN_MOTION":"15.21425610","OBJECT_ID":"2021-125AJ","EPHEMERIS_TYPE":"0","ECCENTRICITY":"0.00015060","ARG_OF_PERICENTER":"81.1118","MEAN_ANOMALY":"279.0050","ELEMENT_SET_NO":"999"},{"MEAN_ELEMENT_THEORY":"SGP4","REV_AT_EPOCH":"8325","GP_ID":"232705276","BSTAR":"0.00011079000000","MEAN_MOTION_DDOT":"0.0000000000000","PERIOD":"95.437","CLASSIFICATION_TYPE":"U","RCS_SIZE":"LARGE","APOAPSIS":"540.645","TLE_LINE1":"1 50189U 21125AK  23148.66563088  .00001476  00000-0  11079-3 0  9993","PERIAPSIS":"538.805","LAUNCH_DATE":"2021-12-18","MEAN_MOTION_DOT":"0.00001476","TIME_SYSTEM":"UTC","EPHEMERIS_TYPE":"0","OBJECT_ID":"2021-125AK","TLE_LINE2":"2 50189  53.2168 130.2362 0001330  80.7191 279.3952 15.08846777 83258","MEAN_MOTION":"15.08846777","ECCENTRICITY":"0.00013300","ARG_OF_PERICENTER":"80.7191","ELEMENT_SET_NO":"999","MEAN_ANOMALY":"279.3952","COUNTRY_CODE":"US","CENTER_NAME":"EARTH","OBJECT_NAME":"STARLINK-3276","SEMIMAJOR_AXIS":"6917.860","NORAD_CAT_ID":"50189","OBJECT_TYPE":"PAYLOAD","RA_OF_ASC_NODE":"130.2362","REF_FRAME":"TEME","INCLINATION":"53.2168","EPOCH":"2023-05-28T15:58:30.508032","SITE":"AFWTR","FILE":"3919546","DECAY_DATE":null},{"MEAN_MOTION_DDOT":"0.0000000000000","PERIOD":"95.437","CLASSIFICATION_TYPE":"U","RCS_SIZE":"LARGE","GP_ID":"232706027","REV_AT_EPOCH":"8334","MEAN_ELEMENT_THEORY":"SGP4","BSTAR":"0.00008773900000","MEAN_MOTION_DOT":"0.00001109","TLE_LINE1":"1 50190U 21125AL  23148.64718420  .00001109  00000-0  87739-4 0  9995","APOAPSIS":"540.484","LAUNCH_DATE":"2021-12-18","PERIAPSIS":"538.995","ARG_OF_PERICENTER":"88.7236","ELEMENT_SET_NO":"999","MEAN_ANOMALY":"271.3879","TIME_SYSTEM":"UTC","ECCENTRICITY":"0.00010760","OBJECT_ID":"2021-125AL","EPHEMERIS_TYPE":"0","TLE_LINE2":"2 50190  53.2163 120.3092 0001076  88.7236 271.3879 15.08842000 83345","MEAN_MOTION":"15.08842000","INCLINATION":"53.2163","EPOCH":"2023-05-28T15:31:56.714880","FILE":"3919546","DECAY_DATE":null,"SITE":"AFWTR","COUNTRY_CODE":"US","CENTER_NAME":"EARTH","OBJECT_NAME":"STARLINK-3268","SEMIMAJOR_AXIS":"6917.874","REF_FRAME":"TEME","NORAD_CAT_ID":"50190","RA_OF_ASC_NODE":"120.3092","OBJECT_TYPE":"PAYLOAD"},{"BSTAR":"0.00003468600000","GP_ID":"232706278","REV_AT_EPOCH":"8302","MEAN_ELEMENT_THEORY":"SGP4","RCS_SIZE":"LARGE","CLASSIFICATION_TYPE":"U","PERIOD":"95.437","MEAN_MOTION_DDOT":"0.0000000000000","LAUNCH_DATE":"2021-12-18","PERIAPSIS":"539.011","TLE_LINE1":"1 50191U 21125AM  23148.39142162  .00000264  00000-0  34686-4 0  9996","APOAPSIS":"540.461","MEAN_MOTION_DOT":"0.00000264","ECCENTRICITY":"0.00010480","TLE_LINE2":"2 50191  53.2149 141.4583 0001048  85.6735 274.4377 15.08843013 83025","MEAN_MOTION":"15.08843013","OBJECT_ID":"2021-125AM","EPHEMERIS_TYPE":"0","TIME_SYSTEM":"UTC","MEAN_ANOMALY":"274.4377","ELEMENT_SET_NO":"999","ARG_OF_PERICENTER":"85.6735","REF_FRAME":"TEME","OBJECT_TYPE":"PAYLOAD","RA_OF_ASC_NODE":"141.4583","NORAD_CAT_ID":"50191","SEMIMAJOR_AXIS":"6917.871","OBJECT_NAME":"STARLINK-3273","CENTER_NAME":"EARTH","COUNTRY_CODE":"US","FILE":"3919546","DECAY_DATE":null,"SITE":"AFWTR","INCLINATION":"53.2149","EPOCH":"2023-05-28T09:23:38.827968"}];
